<?xml version="1.0" encoding="UTF-8"?>
<ndm xmlns:xsi="http://www.w3.org/2001/XMLSchema-instance" xsi:noNamespaceSchemaLocation="https://sanaregistry.org/r/ndmxml_unqualified/ndmxml-2.0.0-master-2.0.xsd">
<omm id="CCSDS_OMM_VERS" version="2.0">
<header><CREATION_DATE/><ORIGINATOR/></header><body><segment><metadata><OBJECT_NAME>IRIDIUM 162</OBJECT_NAME><OBJECT_ID>2018-047G</OBJECT_ID><CENTER_NAME>EARTH</CENTER_NAME><REF_FRAME>TEME</REF_FRAME><TIME_SYSTEM>UTC</TIME_SYSTEM><MEAN_ELEMENT_THEORY>SGP4</MEAN_ELEMENT_THEORY></metadata><data><meanElements><EPOCH>2024-10-14T13:35:03.745248</EPOCH><MEAN_MOTION>14.43277263</MEAN_MOTION><ECCENTRICITY>.0001805</ECCENTRICITY><INCLINATION>86.4522</INCLINATION><RA_OF_ASC_NODE>343.5647</RA_OF_ASC_NODE><ARG_OF_PERICENTER>95.9213</ARG_OF_PERICENTER><MEAN_ANOMALY>264.2194</MEAN_ANOMALY></meanElements><tleParameters><EPHEMERIS_TYPE>0</EPHEMERIS_TYPE><CLASSIFICATION_TYPE>U</CLASSIFICATION_TYPE><NORAD_CAT_ID>43482</NORAD_CAT_ID><ELEMENT_SET_NO>999</ELEMENT_SET_NO><REV_AT_EPOCH>33705</REV_AT_EPOCH><BSTAR>.32729E-3</BSTAR><MEAN_MOTION_DOT>.1121E-4</MEAN_MOTION_DOT><MEAN_MOTION_DDOT>0</MEAN_MOTION_DDOT></tleParameters></data></segment></body></omm>
<omm id="CCSDS_OMM_VERS" version="2.0">
<header><CREATION_DATE/><ORIGINATOR/></header><body><segment><metadata><OBJECT_NAME>IRIDIUM 160</OBJECT_NAME><OBJECT_ID>2018-061A</OBJECT_ID><CENTER_NAME>EARTH</CENTER_NAME><REF_FRAME>TEME</REF_FRAME><TIME_SYSTEM>UTC</TIME_SYSTEM><MEAN_ELEMENT_THEORY>SGP4</MEAN_ELEMENT_THEORY></metadata><data><meanElements><EPOCH>2024-10-14T12:23:05.044704</EPOCH><MEAN_MOTION>14.34217962</MEAN_MOTION><ECCENTRICITY>.0001988</ECCENTRICITY><INCLINATION>86.3940</INCLINATION><RA_OF_ASC_NODE>311.9917</RA_OF_ASC_NODE><ARG_OF_PERICENTER>89.0459</ARG_OF_PERICENTER><MEAN_ANOMALY>271.0964</MEAN_ANOMALY></meanElements><tleParameters><EPHEMERIS_TYPE>0</EPHEMERIS_TYPE><CLASSIFICATION_TYPE>U</CLASSIFICATION_TYPE><NORAD_CAT_ID>43569</NORAD_CAT_ID><ELEMENT_SET_NO>999</ELEMENT_SET_NO><REV_AT_EPOCH>32584</REV_AT_EPOCH><BSTAR>.18397E-3</BSTAR><MEAN_MOTION_DOT>.535E-5</MEAN_MOTION_DOT><MEAN_MOTION_DDOT>0</MEAN_MOTION_DDOT></tleParameters></data></segment></body></omm>
<omm id="CCSDS_OMM_VERS" version="2.0">
<header><CREATION_DATE/><ORIGINATOR/></header><body><segment><metadata><OBJECT_NAME>IRIDIUM 166</OBJECT_NAME><OBJECT_ID>2018-061B</OBJECT_ID><CENTER_NAME>EARTH</CENTER_NAME><REF_FRAME>TEME</REF_FRAME><TIME_SYSTEM>UTC</TIME_SYSTEM><MEAN_ELEMENT_THEORY>SGP4</MEAN_ELEMENT_THEORY></metadata><data><meanElements><EPOCH>2024-10-14T11:19:10.603200</EPOCH><MEAN_MOTION>14.34213568</MEAN_MOTION><ECCENTRICITY>.0002496</ECCENTRICITY><INCLINATION>86.3940</INCLINATION><RA_OF_ASC_NODE>311.9686</RA_OF_ASC_NODE><ARG_OF_PERICENTER>95.8958</ARG_OF_PERICENTER><MEAN_ANOMALY>264.2522</MEAN_ANOMALY></meanElements><tleParameters><EPHEMERIS_TYPE>0</EPHEMERIS_TYPE><CLASSIFICATION_TYPE>U</CLASSIFICATION_TYPE><NORAD_CAT_ID>43570</NORAD_CAT_ID><ELEMENT_SET_NO>999</ELEMENT_SET_NO><REV_AT_EPOCH>32586</REV_AT_EPOCH><BSTAR>.16656E-3</BSTAR><MEAN_MOTION_DOT>.486E-5</MEAN_MOTION_DOT><MEAN_MOTION_DDOT>0</MEAN_MOTION_DDOT></tleParameters></data></segment></body></omm>
<omm id="CCSDS_OMM_VERS" version="2.0">
<header><CREATION_DATE/><ORIGINATOR/></header><body><segment><metadata><OBJECT_NAME>IRIDIUM 158</OBJECT_NAME><OBJECT_ID>2018-061C</OBJECT_ID><CENTER_NAME>EARTH</CENTER_NAME><REF_FRAME>TEME</REF_FRAME><TIME_SYSTEM>UTC</TIME_SYSTEM><MEAN_ELEMENT_THEORY>SGP4</MEAN_ELEMENT_THEORY></metadata><data><meanElements><EPOCH>2024-10-14T08:53:01.446432</EPOCH><MEAN_MOTION>14.34223270</MEAN_MOTION><ECCENTRICITY>.0002304</ECCENTRICITY><INCLINATION>86.3939</INCLINATION><RA_OF_ASC_NODE>312.0209</RA_OF_ASC_NODE><ARG_OF_PERICENTER>95.0317</ARG_OF_PERICENTER><MEAN_ANOMALY>265.1142</MEAN_ANOMALY></meanElements><tleParameters><EPHEMERIS_TYPE>0</EPHEMERIS_TYPE><CLASSIFICATION_TYPE>U</CLASSIFICATION_TYPE><NORAD_CAT_ID>43571</NORAD_CAT_ID><ELEMENT_SET_NO>999</ELEMENT_SET_NO><REV_AT_EPOCH>32581</REV_AT_EPOCH><BSTAR>.29892E-3</BSTAR><MEAN_MOTION_DOT>.857E-5</MEAN_MOTION_DOT><MEAN_MOTION_DDOT>0</MEAN_MOTION_DDOT></tleParameters></data></segment></body></omm>
<omm id="CCSDS_OMM_VERS" version="2.0">
<header><CREATION_DATE/><ORIGINATOR/></header><body><segment><metadata><OBJECT_NAME>IRIDIUM 165</OBJECT_NAME><OBJECT_ID>2018-061D</OBJECT_ID><CENTER_NAME>EARTH</CENTER_NAME><REF_FRAME>TEME</REF_FRAME><TIME_SYSTEM>UTC</TIME_SYSTEM><MEAN_ELEMENT_THEORY>SGP4</MEAN_ELEMENT_THEORY></metadata><data><meanElements><EPOCH>2024-10-14T11:10:02.136000</EPOCH><MEAN_MOTION>14.34218159</MEAN_MOTION><ECCENTRICITY>.0002245</ECCENTRICITY><INCLINATION>86.3941</INCLINATION><RA_OF_ASC_NODE>312.0159</RA_OF_ASC_NODE><ARG_OF_PERICENTER>88.3381</ARG_OF_PERICENTER><MEAN_ANOMALY>271.8072</MEAN_ANOMALY></meanElements><tleParameters><EPHEMERIS_TYPE>0</EPHEMERIS_TYPE><CLASSIFICATION_TYPE>U</CLASSIFICATION_TYPE><NORAD_CAT_ID>43572</NORAD_CAT_ID><ELEMENT_SET_NO>999</ELEMENT_SET_NO><REV_AT_EPOCH>32585</REV_AT_EPOCH><BSTAR>.24289E-3</BSTAR><MEAN_MOTION_DOT>.7E-5</MEAN_MOTION_DOT><MEAN_MOTION_DDOT>0</MEAN_MOTION_DDOT></tleParameters></data></segment></body></omm>
<omm id="CCSDS_OMM_VERS" version="2.0">
<header><CREATION_DATE/><ORIGINATOR/></header><body><segment><metadata><OBJECT_NAME>IRIDIUM 155</OBJECT_NAME><OBJECT_ID>2018-061E</OBJECT_ID><CENTER_NAME>EARTH</CENTER_NAME><REF_FRAME>TEME</REF_FRAME><TIME_SYSTEM>UTC</TIME_SYSTEM><MEAN_ELEMENT_THEORY>SGP4</MEAN_ELEMENT_THEORY></metadata><data><meanElements><EPOCH>2024-10-14T11:55:42.061440</EPOCH><MEAN_MOTION>14.34221973</MEAN_MOTION><ECCENTRICITY>.0002339</ECCENTRICITY><INCLINATION>86.3937</INCLINATION><RA_OF_ASC_NODE>311.9018</RA_OF_ASC_NODE><ARG_OF_PERICENTER>96.1842</ARG_OF_PERICENTER><MEAN_ANOMALY>263.9620</MEAN_ANOMALY></meanElements><tleParameters><EPHEMERIS_TYPE>0</EPHEMERIS_TYPE><CLASSIFICATION_TYPE>U</CLASSIFICATION_TYPE><NORAD_CAT_ID>43573</NORAD_CAT_ID><ELEMENT_SET_NO>999</ELEMENT_SET_NO><REV_AT_EPOCH>32582</REV_AT_EPOCH><BSTAR>.24392E-3</BSTAR><MEAN_MOTION_DOT>.703E-5</MEAN_MOTION_DOT><MEAN_MOTION_DDOT>0</MEAN_MOTION_DDOT></tleParameters></data></segment></body></omm>
<omm id="CCSDS_OMM_VERS" version="2.0">
<header><CREATION_DATE/><ORIGINATOR/></header><body><segment><metadata><OBJECT_NAME>IRIDIUM 154</OBJECT_NAME><OBJECT_ID>2018-061F</OBJECT_ID><CENTER_NAME>EARTH</CENTER_NAME><REF_FRAME>TEME</REF_FRAME><TIME_SYSTEM>UTC</TIME_SYSTEM><MEAN_ELEMENT_THEORY>SGP4</MEAN_ELEMENT_THEORY></metadata><data><meanElements><EPOCH>2024-10-14T11:28:18.138144</EPOCH><MEAN_MOTION>14.34219573</MEAN_MOTION><ECCENTRICITY>.000193</ECCENTRICITY><INCLINATION>86.3936</INCLINATION><RA_OF_ASC_NODE>312.0127</RA_OF_ASC_NODE><ARG_OF_PERICENTER>89.6822</ARG_OF_PERICENTER><MEAN_ANOMALY>270.4594</MEAN_ANOMALY></meanElements><tleParameters><EPHEMERIS_TYPE>0</EPHEMERIS_TYPE><CLASSIFICATION_TYPE>U</CLASSIFICATION_TYPE><NORAD_CAT_ID>43574</NORAD_CAT_ID><ELEMENT_SET_NO>999</ELEMENT_SET_NO><REV_AT_EPOCH>32587</REV_AT_EPOCH><BSTAR>-.1442E-4</BSTAR><MEAN_MOTION_DOT>-.21E-6</MEAN_MOTION_DOT><MEAN_MOTION_DDOT>0</MEAN_MOTION_DDOT></tleParameters></data></segment></body></omm>
<omm id="CCSDS_OMM_VERS" version="2.0">
<header><CREATION_DATE/><ORIGINATOR/></header><body><segment><metadata><OBJECT_NAME>IRIDIUM 163</OBJECT_NAME><OBJECT_ID>2018-061G</OBJECT_ID><CENTER_NAME>EARTH</CENTER_NAME><REF_FRAME>TEME</REF_FRAME><TIME_SYSTEM>UTC</TIME_SYSTEM><MEAN_ELEMENT_THEORY>SGP4</MEAN_ELEMENT_THEORY></metadata><data><meanElements><EPOCH>2024-10-14T11:00:54.152640</EPOCH><MEAN_MOTION>14.34217373</MEAN_MOTION><ECCENTRICITY>.0002067</ECCENTRICITY><INCLINATION>86.3937</INCLINATION><RA_OF_ASC_NODE>311.9558</RA_OF_ASC_NODE><ARG_OF_PERICENTER>98.3016</ARG_OF_PERICENTER><MEAN_ANOMALY>261.8414</MEAN_ANOMALY></meanElements><tleParameters><EPHEMERIS_TYPE>0</EPHEMERIS_TYPE><CLASSIFICATION_TYPE>U</CLASSIFICATION_TYPE><NORAD_CAT_ID>43575</NORAD_CAT_ID><ELEMENT_SET_NO>999</ELEMENT_SET_NO><REV_AT_EPOCH>32584</REV_AT_EPOCH><BSTAR>.29494E-4</BSTAR><MEAN_MOTION_DOT>.102E-5</MEAN_MOTION_DOT><MEAN_MOTION_DDOT>0</MEAN_MOTION_DDOT></tleParameters></data></segment></body></omm>
<omm id="CCSDS_OMM_VERS" version="2.0">
<header><CREATION_DATE/><ORIGINATOR/></header><body><segment><metadata><OBJECT_NAME>IRIDIUM 156</OBJECT_NAME><OBJECT_ID>2018-061H</OBJECT_ID><CENTER_NAME>EARTH</CENTER_NAME><REF_FRAME>TEME</REF_FRAME><TIME_SYSTEM>UTC</TIME_SYSTEM><MEAN_ELEMENT_THEORY>SGP4</MEAN_ELEMENT_THEORY></metadata><data><meanElements><EPOCH>2024-10-14T12:04:49.769184</EPOCH><MEAN_MOTION>14.34221181</MEAN_MOTION><ECCENTRICITY>.0002442</ECCENTRICITY><INCLINATION>86.3936</INCLINATION><RA_OF_ASC_NODE>311.9437</RA_OF_ASC_NODE><ARG_OF_PERICENTER>94.8341</ARG_OF_PERICENTER><MEAN_ANOMALY>265.3134</MEAN_ANOMALY></meanElements><tleParameters><EPHEMERIS_TYPE>0</EPHEMERIS_TYPE><CLASSIFICATION_TYPE>U</CLASSIFICATION_TYPE><NORAD_CAT_ID>43576</NORAD_CAT_ID><ELEMENT_SET_NO>999</ELEMENT_SET_NO><REV_AT_EPOCH>32584</REV_AT_EPOCH><BSTAR>-.19391E-3</BSTAR><MEAN_MOTION_DOT>-.523E-5</MEAN_MOTION_DOT><MEAN_MOTION_DDOT>0</MEAN_MOTION_DDOT></tleParameters></data></segment></body></omm>

</ndm>
